[{"OBJECT_NAME":"FLOCK 4G-15","OBJECT_ID":"2025-009BX","EPOCH":"2026-03-09T17:13:37.807680","MEAN_MOTION":15.27266411,"ECCENTRICITY":0.00036988,"INCLINATION":97.4054,"RA_OF_ASC_NODE":151.1927,"ARG_OF_PERICENTER":316.8208,"MEAN_ANOMALY":43.274,"EPHEMERIS_TYPE":0,"CLASSIFICATION_TYPE":"U","NORAD_CAT_ID":62678,"ELEMENT_SET_NO":999,"REV_AT_EPOCH":12135,"BSTAR":0.00047574812,"MEAN_MOTION_DOT":0.00012647,"MEAN_MOTION_DDOT":0},{"OBJECT_NAME":"STARLINK-36445","OBJECT_ID":"2026-002J","EPOCH":"2026-03-09T02:12:43.678944","MEAN_MOTION":15.27599119,"ECCENTRICITY":0.00010369,"INCLINATION":43.0014,"RA_OF_ASC_NODE":328.981,"ARG_OF_PERICENTER":287.6942,"MEAN_ANOMALY":72.3796,"EPHEMERIS_TYPE":0,"CLASSIFICATION_TYPE":"U","NORAD_CAT_ID":67313,"ELEMENT_SET_NO":999,"REV_AT_EPOCH":1114,"BSTAR":0.0009990029,"MEAN_MOTION_DOT":0.00027346,"MEAN_MOTION_DDOT":0}]
